{
  "type": "FeatureCollection",
  "features": [
    {
      "type": "Feature",
      "properties": {
        "norad_id": 33412,
        "name": "COSMO-SKYMED 3",
        "group": "resource",
        "lat": 17.33043029072852,
        "lon": -163.6473466199174,
        "alt_km": 560.6237054391049,
        "timestamp": "2025-12-14T09:36:22.691153+00:00",
        "meta_object_name": "COSMO-SKYMED 3",
        "meta_object_id": "2008-054A",
        "meta_epoch": "2025-12-13T15:58:49.536768",
        "meta_mean_motion": 15.05370649,
        "meta_eccentricity": 0.0016155,
        "meta_inclination": 97.8474,
        "meta_ra_of_asc_node": 198.0727,
        "meta_arg_of_pericenter": 170.5532,
        "meta_mean_anomaly": 189.6001,
        "meta_ephemeris_type": 0,
        "meta_classification_type": "U",
        "meta_norad_cat_id": 33412,
        "meta_element_set_no": 999,
        "meta_rev_at_epoch": 92901,
        "meta_bstar": 0.00043181449,
        "meta_mean_motion_dot": 6.142e-05,
        "meta_mean_motion_ddot": 0,
        "tle_line1": "1 33412U 08054A   25347.66585112  .00006142  00000+0  43181-3 0  9997",
        "tle_line2": "2 33412  97.8474 198.0727 0016155 170.5532 189.6001 15.05370649929015"
      },
      "geometry": {
        "type": "Point",
        "coordinates": [
          -163.6473466199174,
          17.33043029072852
        ]
      }
    },
    {
      "type": "Feature",
      "properties": {
        "norad_id": 33446,
        "name": "YAOGAN-4",
        "group": "resource",
        "lat": -43.03597389255445,
        "lon": 91.01670752108389,
        "alt_km": 628.2046098333976,
        "timestamp": "2025-12-14T09:36:22.691163+00:00",
        "meta_object_name": "YAOGAN-4",
        "meta_object_id": "2008-061A",
        "meta_epoch": "2025-12-13T16:24:13.135968",
        "meta_mean_motion": 14.82686837,
        "meta_eccentricity": 0.00135092,
        "meta_inclination": 97.918,
        "meta_ra_of_asc_node": 277.7736,
        "meta_arg_of_pericenter": 320.0535,
        "meta_mean_anomaly": 39.9683,
        "meta_ephemeris_type": 0,
        "meta_classification_type": "U",
        "meta_norad_cat_id": 33446,
        "meta_element_set_no": 999,
        "meta_rev_at_epoch": 91817,
        "meta_bstar": 0.00027788174,
        "meta_mean_motion_dot": 2.191e-05,
        "meta_mean_motion_ddot": 0,
        "tle_line1": "1 33446U 08061A   25347.68348537  .00002191  00000+0  27788-3 0  9997",
        "tle_line2": "2 33446  97.9180 277.7736 0013509 320.0535  39.9683 14.82686837918178"
      },
      "geometry": {
        "type": "Point",
        "coordinates": [
          91.01670752108389,
          -43.03597389255445
        ]
      }
    },
    {
      "type": "Feature",
      "properties": {
        "norad_id": 33492,
        "name": "GOSAT (IBUKI)",
        "group": "resource",
        "lat": -5.448974226433528,
        "lon": -83.79591644910398,
        "alt_km": 672.6202677451947,
        "timestamp": "2025-12-14T09:36:22.691174+00:00",
        "meta_object_name": "GOSAT (IBUKI)",
        "meta_object_id": "2009-002A",
        "meta_epoch": "2025-12-13T13:07:41.153376",
        "meta_mean_motion": 14.67556859,
        "meta_eccentricity": 9.204e-05,
        "meta_inclination": 98.0769,
        "meta_ra_of_asc_node": 96.139,
        "meta_arg_of_pericenter": 92.0937,
        "meta_mean_anomaly": 268.0373,
        "meta_ephemeris_type": 0,
        "meta_classification_type": "U",
        "meta_norad_cat_id": 33492,
        "meta_element_set_no": 999,
        "meta_rev_at_epoch": 90423,
        "meta_bstar": 0.0002334962,
        "meta_mean_motion_dot": 1.277e-05,
        "meta_mean_motion_ddot": 0,
        "tle_line1": "1 33492U 09002A   25347.54700409  .00001277  00000+0  23350-3 0  9994",
        "tle_line2": "2 33492  98.0769  96.1390 0000920  92.0937 268.0373 14.67556859904234"
      },
      "geometry": {
        "type": "Point",
        "coordinates": [
          -83.79591644910398,
          -5.448974226433528
        ]
      }
    },
    {
      "type": "Feature",
      "properties": {
        "norad_id": 35681,
        "name": "DEIMOS-1",
        "group": "resource",
        "lat": -52.16675475303272,
        "lon": 158.97868090439437,
        "alt_km": 653.4683427348937,
        "timestamp": "2025-12-14T09:36:22.691185+00:00",
        "meta_object_name": "DEIMOS-1",
        "meta_object_id": "2009-041A",
        "meta_epoch": "2025-12-13T15:56:08.805120",
        "meta_mean_motion": 14.74955029,
        "meta_eccentricity": 0.00027307,
        "meta_inclination": 97.7149,
        "meta_ra_of_asc_node": 148.2242,
        "meta_arg_of_pericenter": 78.398,
        "meta_mean_anomaly": 281.7536,
        "meta_ephemeris_type": 0,
        "meta_classification_type": "U",
        "meta_norad_cat_id": 35681,
        "meta_element_set_no": 999,
        "meta_rev_at_epoch": 87953,
        "meta_bstar": 0.00017069353,
        "meta_mean_motion_dot": 1.1e-05,
        "meta_mean_motion_ddot": 0,
        "tle_line1": "1 35681U 09041A   25347.66399080  .00001100  00000+0  17069-3 0  9996",
        "tle_line2": "2 35681  97.7149 148.2242 0002730  78.3980 281.7536 14.74955029879532"
      },
      "geometry": {
        "type": "Point",
        "coordinates": [
          158.97868090439437,
          -52.16675475303272
        ]
      }
    },
    {
      "type": "Feature",
      "properties": {
        "norad_id": 35682,
        "name": "DUBAISAT-1",
        "group": "resource",
        "lat": -59.108006201830904,
        "lon": -74.50224626004506,
        "alt_km": 651.1235932088821,
        "timestamp": "2025-12-14T09:36:22.691196+00:00",
        "meta_object_name": "DUBAISAT-1",
        "meta_object_id": "2009-041B",
        "meta_epoch": "2025-12-13T08:05:32.518752",
        "meta_mean_motion": 14.74607844,
        "meta_eccentricity": 0.00095229,
        "meta_inclination": 97.9784,
        "meta_ra_of_asc_node": 118.0079,
        "meta_arg_of_pericenter": 312.5561,
        "meta_mean_anomaly": 47.4843,
        "meta_ephemeris_type": 0,
        "meta_classification_type": "U",
        "meta_norad_cat_id": 35682,
        "meta_element_set_no": 999,
        "meta_rev_at_epoch": 87770,
        "meta_bstar": 0.00034970241,
        "meta_mean_motion_dot": 2.282e-05,
        "meta_mean_motion_ddot": 0,
        "tle_line1": "1 35682U 09041B   25347.33718193  .00002282  00000+0  34970-3 0  9993",
        "tle_line2": "2 35682  97.9784 118.0079 0009522 312.5561  47.4843 14.74607844877701"
      },
      "geometry": {
        "type": "Point",
        "coordinates": [
          -74.50224626004506,
          -59.108006201830904
        ]
      }
    },
    {
      "type": "Feature",
      "properties": {
        "norad_id": 35931,
        "name": "OCEANSAT-2",
        "group": "resource",
        "lat": -29.89908551008439,
        "lon": -6.398500725885013,
        "alt_km": 897.0622666701929,
        "timestamp": "2025-12-14T09:36:22.691206+00:00",
        "meta_object_name": "OCEANSAT-2",
        "meta_object_id": "2009-051A",
        "meta_epoch": "2025-12-13T14:52:38.887392",
        "meta_mean_motion": 13.99624463,
        "meta_eccentricity": 0.0016199,
        "meta_inclination": 98.2222,
        "meta_ra_of_asc_node": 348.1313,
        "meta_arg_of_pericenter": 42.7512,
        "meta_mean_anomaly": 317.4912,
        "meta_ephemeris_type": 0,
        "meta_classification_type": "U",
        "meta_norad_cat_id": 35931,
        "meta_element_set_no": 999,
        "meta_rev_at_epoch": 85337,
        "meta_bstar": -6.7474145e-05,
        "meta_mean_motion_dot": -1.36e-06,
        "meta_mean_motion_ddot": 0,
        "tle_line1": "1 35931U 09051A   25347.61989453 -.00000136  00000+0 -67474-4 0  9995",
        "tle_line2": "2 35931  98.2222 348.1313 0016199  42.7512 317.4912 13.99624463853378"
      },
      "geometry": {
        "type": "Point",
        "coordinates": [
          -6.398500725885013,
          -29.89908551008439
        ]
      }
    },
    {
      "type": "Feature",
      "properties": {
        "norad_id": 35946,
        "name": "WORLDVIEW-2 (WV-2)",
        "group": "resource",
        "lat": -40.813858294513075,
        "lon": 66.86307149195845,
        "alt_km": 773.6546279370559,
        "timestamp": "2025-12-14T09:36:22.691216+00:00",
        "meta_object_name": "WORLDVIEW-2 (WV-2)",
        "meta_object_id": "2009-055A",
        "meta_epoch": "2025-12-13T15:25:31.346688",
        "meta_mean_motion": 14.37724433,
        "meta_eccentricity": 0.00051597,
        "meta_inclination": 98.4788,
        "meta_ra_of_asc_node": 58.7144,
        "meta_arg_of_pericenter": 68.4854,
        "meta_mean_anomaly": 291.6882,
        "meta_ephemeris_type": 0,
        "meta_classification_type": "U",
        "meta_norad_cat_id": 35946,
        "meta_element_set_no": 999,
        "meta_rev_at_epoch": 84898,
        "meta_bstar": 9.6546879e-05,
        "meta_mean_motion_dot": 2.47e-06,
        "meta_mean_motion_ddot": 0,
        "tle_line1": "1 35946U 09055A   25347.64272392  .00000247  00000+0  96547-4 0  9999",
        "tle_line2": "2 35946  98.4788  58.7144 0005159  68.4854 291.6882 14.37724433848988"
      },
      "geometry": {
        "type": "Point",
        "coordinates": [
          66.86307149195845,
          -40.813858294513075
        ]
      }
    }
  ]
}